{
  "type": "FeatureCollection",
  "features": [
    {
      "type": "Feature",
      "properties": {
        "id": "chuy",
        "name": "Chuy Region",
        "name:ru": "Чуйская область",
        "name:ky": "Чүй облусу"
      },
      "geometry": {
        "type": "Polygon",
        "coordinates": [
          [
            [73.5000, 42.5000],
            [74.2000, 42.4000],
            [75.0000, 42.4500],
            [76.0000, 42.5000],
            [76.2000, 42.8500],
            [75.8000, 42.8000],
            [75.0000, 42.9000],
            [74.2000, 43.1000],
            [73.5000, 42.9000],
            [73.5000, 42.5000]
          ]
        ]
      }
    },
    {
      "type": "Feature",
      "properties": {
        "id": "issyk-kul",
        "name": "Issyk-Kul Region",
        "name:ru": "Иссык-Кульская область",
        "name:ky": "Ысык-Көл облусу"
      },
      "geometry": {
        "type": "Polygon",
        "coordinates": [
          [
            [76.0000, 41.5000],
            [77.5000, 41.0000],
            [78.2000, 41.3000],
            [79.0000, 41.8000],
            [79.8000, 42.1000],
            [80.2500, 42.2500],
            [79.8000, 42.6000],
            [79.0000, 42.8000],
            [78.0000, 42.9000],
            [77.2000, 42.9500],
            [76.5000, 42.8500],
            [76.0000, 42.5000],
            [76.0000, 41.5000]
          ]
        ]
      }
    },
    {
      "type": "Feature",
      "properties": {
        "id": "naryn",
        "name": "Naryn Region",
        "name:ru": "Нарынская область",
        "name:ky": "Нарын облусу"
      },
      "geometry": {
        "type": "Polygon",
        "coordinates": [
          [
            [74.0000, 40.5000],
            [75.0000, 40.2000],
            [76.2000, 40.5000],
            [77.5000, 41.0000],
            [76.0000, 41.5000],
            [76.0000, 42.5000],
            [75.0000, 42.4500],
            [74.2000, 42.4000],
            [74.0000, 41.5000],
            [74.0000, 40.5000]
          ]
        ]
      }
    },
    {
      "type": "Feature",
      "properties": {
        "id": "talas",
        "name": "Talas Region",
        "name:ru": "Таласская область",
        "name:ky": "Талас облусу"
      },
      "geometry": {
        "type": "Polygon",
        "coordinates": [
          [
            [71.0000, 42.0000],
            [71.5000, 42.5000],
            [72.2000, 42.6000],
            [72.8000, 42.7000],
            [73.5000, 42.9000],
            [73.5000, 42.5000],
            [72.5000, 42.1000],
            [71.0000, 42.0000]
          ]
        ]
      }
    },
    {
      "type": "Feature",
      "properties": {
        "id": "jalal-abad",
        "name": "Jalal-Abad Region",
        "name:ru": "Джалал-Абадская область",
        "name:ky": "Жалал-Абад облусу"
      },
      "geometry": {
        "type": "Polygon",
        "coordinates": [
          [
            [71.0000, 41.4000],
            [71.5000, 41.0000],
            [71.8000, 40.6000],
            [73.2000, 40.8000],
            [74.0000, 40.5000],
            [74.0000, 41.5000],
            [73.5000, 42.5000],
            [72.5000, 42.1000],
            [71.0000, 42.0000],
            [70.8000, 41.8000],
            [71.1000, 42.2000],
            [71.0000, 41.4000]
          ]
        ]
      }
    },
    {
      "type": "Feature",
      "properties": {
        "id": "osh",
        "name": "Osh Region",
        "name:ru": "Ошская область",
        "name:ky": "Ош облусу"
      },
      "geometry": {
        "type": "Polygon",
        "coordinates": [
          [
            [71.8000, 40.6000],
            [72.4000, 39.3000],
            [73.5000, 39.4500],
            [74.0000, 39.8000],
            [75.0000, 40.2000],
            [74.0000, 40.5000],
            [73.2000, 40.8000],
            [71.8000, 40.6000]
          ]
        ]
      }
    },
    {
      "type": "Feature",
      "properties": {
        "id": "batken",
        "name": "Batken Region",
        "name:ru": "Баткенская область",
        "name:ky": "Баткен облусу"
      },
      "geometry": {
        "type": "Polygon",
        "coordinates": [
          [
            [69.2524, 40.1812],
            [69.6000, 39.5000],
            [70.2000, 39.7500],
            [70.9000, 39.4000],
            [71.5000, 39.2000],
            [72.4000, 39.3000],
            [71.8000, 40.6000],
            [71.2000, 40.2000],
            [70.5000, 40.0000],
            [69.7812, 40.1812],
            [69.2524, 40.1812]
          ]
        ]
      }
    },
    {
      "type": "Feature",
      "properties": {
        "id": "bishkek",
        "name": "Bishkek City",
        "name:ru": "г. Бишкек",
        "name:ky": "Бишкек ш."
      },
      "geometry": {
        "type": "Polygon",
        "coordinates": [
          [
            [74.5000, 42.8200],
            [74.6500, 42.8200],
            [74.6500, 42.9200],
            [74.5000, 42.9200],
            [74.5000, 42.8200]
          ]
        ]
      }
    },
    {
      "type": "Feature",
      "properties": {
        "id": "osh-city",
        "name": "Osh City",
        "name:ru": "г. Ош",
        "name:ky": "Ош ш."
      },
      "geometry": {
        "type": "Polygon",
        "coordinates": [
          [
            [72.7800, 40.4800],
            [72.8500, 40.4800],
            [72.8500, 40.5500],
            [72.7800, 40.5500],
            [72.7800, 40.4800]
          ]
        ]
      }
    }
  ]
}